NAYIF-1 (EO-88)         
1 42017U 17008BX  20071.99974691  .00001247  00000-0  50984-4 0  9998
2 42017  97.3703 140.9514 0004873 317.6920  42.3942 15.26211535170686
MAX VALIER SAT          
1 42778U 17036P   20072.59934094  .00000716  00000-0  33870-4 0  9998
2 42778  97.3182 128.8561 0012310  11.5314 348.6203 15.22442732150995
RADFXSAT (FOX-1B)       
1 43017U 17073E   20071.95948690  .00000769  00000-0  65067-4 0  9993
2 43017  97.7262 347.9429 0257658   8.3214 352.2147 14.78830939124754
FOX-1D (AO-92)          
1 43137U 18004AC  20072.17973385  .00000780  00000-0  35216-4 0  9991
2 43137  97.4552 143.9665 0010256  45.5438 314.6636 15.23929898120221
ES'HAIL 2               
1 43700U 18090A   20072.15049215  .00000125  00000-0  00000-0 0  9998
2 43700   0.0108 214.1520 0002422 167.4268 228.6433  1.00272225  4737
FOX-1CLIFF (AO-95)      
1 43770U 18099N   20072.45576062 -.00000036  00000-0  19119-5 0  9990
2 43770  97.7147 145.4898 0015283 156.1310 204.0622 14.94923766 69421
ITASAT 1                
1 43786U 18099AE  20072.14037050  .00000503  00000-0  50854-4 0  9990
2 43786  97.7162 145.5291 0016096 151.2737 208.9374 14.95271768 69397
JY1SAT (JO-97)          
1 43803U 18099AX  20072.56744184  .00000134  00000-0  17323-4 0  9993
2 43803  97.7125 145.7927 0015987 150.0021 210.2119 14.95438957 69450
PSAT2 (NO-104)          
1 44354U 19036R   20072.02065897  .00009313  00000-0  13754-3 0  9996
2 44354  28.5312 299.6714 0372100 351.8065   7.6575 15.01458537 39148
BRICSAT2 (NO-103)       
1 44355U 19036S   20071.99648463  .00017339  00000-0  25233-3 0  9990
2 44355  28.5309 295.5822 0357761 358.4755   1.4738 15.05041129 39192
JAISAT-1                
1 44419U 19038F   20072.58146777  .00000808  00000-0  49739-4 0  9991
2 44419  97.5272  35.3935 0023331 103.4313 256.9520 15.12611207 37950
DUCHIFAT-3              
1 44854U 19089C   20072.71067037  .00000328  00000-0  33003-4 0  9990
2 44854  36.9698 310.0544 0008977 349.7574  10.3020 14.98991734 13774
HUSKYSAT-1              
1 45119U 19071J   20072.48659050  .00000908  00000-0  39481-4 0  9992
2 45119  51.6435 111.7595 0012879  65.4344 294.7978 15.33209659  6249
